#dP2020  2 16  0  0  0.00000000      96 __u+U ITR00 FIT  IAC
## 2093      0.00000000   900.00000000 58895 0.0000000000000
+  106   C06C07C08C09C10C11C12C13C14C16C19C20C21C22C23C24C25
+        C26C27C28C29C30C32C33C34C35C36C37E01E02E03E04E05E07
+        E08E09E11E12E13E14E15E18E19E21E24E25E26E27E30E31E33
+        E36G01G02G03G04G05G06G07G08G09G10G11G12G13G14G15G16
+        G17G18G19G20G21G22G23G24G25G26G27G28G29G30G31G32R01
+        R02R03R04R05R07R08R09R11R12R13R14R15R16R17R18R19R20
+        R21R22R23R26  0  0  0  0  0  0  0  0  0  0  0  0  0
++         8  8  9  8  8  7  7  9  8  8  8  8  7  7  7  8  7
++         8  8  8  8  8  9  8  8  8  8  8  4  4  4  5  4  5
++         5  4  4  5  5  5  4  3  4  4  4  4  5  4  4  5  5
++         4  4  3  3  4  3  3  4  4  4  4  3  3  4  4  3  3
++         3  4  3  4  4  4  4  4  4  4  4  3  4  3  4  4  6
++         5  5  5  5  6  5  5  6  6  6  5  5  6  5  5  6  6
++         6  6  5  8  0  0  0  0  0  0  0  0  0  0  0  0  0
%c M  cc GPS ccc cccc cccc cccc cccc ccccc ccccc ccccc ccccc
%c cc cc ccc ccc cccc cccc cccc cccc ccccc ccccc ccccc ccccc
%f  0.0000000  0.000000000  0.00000000000  0.000000000000000
%f  0.0000000  0.000000000  0.00000000000  0.000000000000000
%i    0    0    0    0      0      0      0      0         0
%i    0    0    0    0      0      0      0      0         0
/* INFORMATION & ANALYSIS CENTER (IAC)      ULTRA-RAPID DATA
/* S/V CLOCKS ARE ALIGNED TO GNSS TIME                      
/* G:C1WC2W R:C1PC2P E:C1XC5X C:C2IC6I J:C1CC2S             
/* PCV:IGS14_2091 OL/AL:FES2004  NONE     YN ORB:CoN CLK:CoN
*  2020 02 16 11 45  0.00000000
PC06  -7408.098830  25046.142673 -32644.491303    245.762969
PC07 -22549.658523  27949.437475  21890.523723    -76.040794
PC08 -14004.709097  38420.542817  11037.438632   -119.872720
PC09   5059.915999  31783.675379 -26806.509787    338.035750
PC10  -8994.284016  28872.000994  29402.324849   -665.949425
PC11  19078.645404  15736.841548 -12909.669010   -185.575177
PC12  11241.651697  25067.691231   5007.415227    319.867967
PC13  -5691.369401  41855.560346  -2206.633853    270.222992
PC14  24967.361140   6656.571831 -10577.922794    160.035289
PC16  -4256.849694  26453.638442 -32482.818565   -776.454191
PC19 -27827.787111   -487.468385   1969.204834    327.363994
PC20 -18686.569553 -11438.887158  17284.567329   -719.541584
PC21  -1876.978561  15940.001617 -22810.288951    -81.249182
PC22 -20937.550453  10939.820849 -14831.294661   -860.982782
PC23  17592.047979 -20242.497142   7701.720618   -892.884583
PC24   8383.331504  15979.882566  21283.266288   -928.257501
PC25  18489.359317  -3933.135639  20516.084967   -517.823553
PC26  -5357.776356  25487.766076  10062.465749    573.478862
PC27  -3775.265700 -24366.952040 -13098.754881    279.468468
PC28  11010.834186 -12122.253059 -22587.710746    270.406411
PC29 -19567.067165  -6378.546171  18847.694897    188.539943
PC30 -17013.433604 -21812.061004   3778.788095    272.864866
PC32   1770.246612 -15982.830872  22820.664447   -871.950458
PC33  27840.276366    370.191591  -1990.820230   -913.997154
PC34  17110.978732  21629.192370  -4166.445989   -474.971933
PC35 -10766.217075  12367.706373  22580.588915   -881.645558
PC36 -18517.964031   3303.951967 -20594.871936 999999.999999
PC37   6399.823790 -25422.194438  -9524.055979   -879.960806
PE01 -24461.436449  16543.373814  -2116.708304   -796.004358
PE02  24421.196935 -16583.135474   2033.976275    113.130617
PE03  21079.070137  -6284.559276  19810.228525   -266.905665
PE04  -2019.970225  17487.864630 -23794.656753   -466.978060
PE05  27977.645023   8722.269563   4167.817119   -404.919347
PE07 -18483.662202 -18537.143953  13811.267177   -341.760462
PE08   1639.505706 -17432.647359  23863.293757   6219.550839
PE09  18726.213173  18315.012140 -13798.530720   6154.464673
PE11  10211.393598  25821.487366 -10224.241515   1289.674783
PE12  -2380.183520  28058.478448   9101.266427   5948.607039
PE13 -10174.483134 -25930.777474  10036.826450    398.409304
PE14 -21127.969003 -10116.861999   8603.951690   -907.353418
PE15   2064.440059 -28155.441821  -8892.559198    877.097354
PE18  24562.278638    641.844723 -20235.271461  -1004.751725
PE19 -22509.661427   4640.376285 -18655.190823     -1.506726
PE21 -22839.279617   1550.956496 -18774.888100   -582.983276
PE24   7677.165299  14700.053158  24505.870911   5607.236714
PE25  22777.934520  -1446.114030  18845.873317   -504.100969
PE26 -16583.456051  -8237.098113  23105.746855   3523.020920
PE27  -7840.082254 -14549.115420 -24555.752516    281.181560
PE30  11946.774586 -22018.418368 -15763.881971   4138.959946
PE31 -11714.447649  22055.096076  15899.979429   -471.722124
PE33 -13126.049409  13833.177152  22650.302508   -470.293557
PE36  16447.614442   8494.334274 -23082.531566    597.591815
PG01 -13687.101800  15800.498282  15977.795850   -296.765584
PG02  13746.577379   8139.663613 -20594.490998   -405.787963
PG03 -21795.325504  13344.450632  -7107.553545    -95.857610
PG04 -13279.796692   8306.953193 -21445.797921    -49.633968
PG05  23582.098455     54.220248 -12542.488853     -7.684910
PG06   7742.349555  19562.085483 -16134.524310   -209.792451
PG07  -5271.930831  25737.398720   -836.830564   -215.729920
PG08 -20456.587809  -1429.554220  17042.386280    -23.946854
PG09  -3119.963719  16380.777457 -20726.878542   -156.830881
PG10  -4765.262478 -14395.229745  21880.814057   -247.033724
PG11 -14906.240196   5994.635125  20663.441638   -359.603625
PG12  23955.076945 -10338.125030  -4681.091238    150.652209
PG13  21200.461235  10317.608929  12185.324975    -12.430673
PG14 -18641.727695 -19049.333500    983.281551    -32.102404
PG15  20614.761337  -1178.007145  16600.859592   -251.189562
PG16 -23624.312321  -2270.651300 -12587.449777   -125.091521
PG17  12278.241074  21164.357044  10821.227525    216.979063
PG18 -15012.290581   7873.282122  19920.345698      2.866120
PG19  17418.110799  19876.609637   2321.268185   -197.937727
PG20   6381.190208 -18374.579461  17907.745195    527.869181
PG21   1784.080377 -26626.328759   1331.455595    -40.303620
PG22 -24501.084292   9950.961220   1862.204140   -784.645454
PG23 -12581.358128   9510.396500 -21050.410866   -135.953679
PG24  14177.344369 -14148.340374  17069.771743     -9.141789
PG25  15063.300223 -16308.498179 -14599.796297    -12.937707
PG26 -17257.108137  -7556.315412 -18833.781277    149.480655
PG27 -22656.065978 -11318.008276   8423.912882   -212.708018
PG28   4913.028765  14289.709565  22431.348249    738.869291
PG29   4889.717476 -14931.272052 -21444.338715    -34.412761
PG30   2172.229295  24542.253173   9683.062548   -154.476276
PG31  -9389.205229 -17138.135251 -17809.946739    -23.570170
PG32 -14101.645198 -20385.182910   9799.423559    213.748768
PR01  14850.316936  -7332.941757  19404.375239     57.178767
PR02  -7611.438624 -11552.338555  21480.649459    412.205602
PR03 -22336.433917  -8124.096307   9364.660112     10.104736
PR04 -24219.577281    -86.167275  -7986.668129     38.946752
PR05 -12418.894018   7882.981581 -20837.653149     45.125521
PR07  22591.237587   7887.604229  -8744.578342    -33.262851
PR08  24209.858939     47.270228   8061.689941    -50.538546
PR09   -528.270225  16053.504205  19804.805024    117.114918
PR11  18032.576341 -11556.685306  13894.854110    -13.656208
PR12  15196.071456 -20351.384389  -2167.626748    106.215300
PR13   3296.357910 -17834.385672 -17955.633708    -34.855372
PR14 -10236.165091  -4789.226315 -22860.537690     48.208713
PR15 -17850.259745  10876.992096 -14610.548146    105.947438
PR16 -14663.892062  20793.565142   2579.591246     -1.519490
PR17 -12956.522556 -17848.774870  12801.355413    301.475913
PR18 -11675.781206  -2107.511626  22610.056850     25.316521
PR19  -4655.609624  14484.968664  20480.338260    -79.355265
PR20   6086.605174  24266.358026   4862.604663   -404.247014
PR21  13000.142293  17303.625722 -13511.181129   -105.273731
PR22  10690.783026   -980.343860 -23118.409715    -14.192979
PR23    780.342992 -19389.751982 -16559.711066    286.762992
PR26   4399.235948  23496.385318   8951.312537   -407.041927
EOF
